{
    "links": {
        "self": "http://www.neowsapp.com/rest/v1/neo/3729278?api_key=iIulBulltgU6a56xZRHN4H3l9WmuAYTsLGpBGhQ2"
    },
    "id": "3729278",
    "neo_reference_id": "3729278",
    "name": "(2015 TY24)",
    "designation": "2015 TY24",
    "nasa_jpl_url": "http://ssd.jpl.nasa.gov/sbdb.cgi?sstr=3729278",
    "absolute_magnitude_h": 22.2,
    "estimated_diameter": {
        "kilometers": {
            "estimated_diameter_min": 0.096506147,
            "estimated_diameter_max": 0.2157943048
        },
        "meters": {
            "estimated_diameter_min": 96.5061469579,
            "estimated_diameter_max": 215.7943048444
        },
        "miles": {
            "estimated_diameter_min": 0.059966121,
            "estimated_diameter_max": 0.134088323
        },
        "feet": {
            "estimated_diameter_min": 316.6212271853,
            "estimated_diameter_max": 707.9865871058
        }
    },
    "is_potentially_hazardous_asteroid": false,
    "close_approach_data": [
        {
            "close_approach_date": "1979-09-14",
            "close_approach_date_full": "1979-Sep-14 22:06",
            "epoch_date_close_approach": 306194760000,
            "relative_velocity": {
                "kilometers_per_second": "11.1986123287",
                "kilometers_per_hour": "40315.0043832455",
                "miles_per_hour": "25050.1759180227"
            },
            "miss_distance": {
                "astronomical": "0.3107478648",
                "lunar": "120.8809194072",
                "kilometers": "46487218.681127976",
                "miles": "28885818.2352630288"
            },
            "orbiting_body": "Earth"
        },
        {
            "close_approach_date": "1992-11-02",
            "close_approach_date_full": "1992-Nov-02 02:08",
            "epoch_date_close_approach": 720670080000,
            "relative_velocity": {
                "kilometers_per_second": "16.3098067153",
                "kilometers_per_hour": "58715.3041750534",
                "miles_per_hour": "36483.406641438"
            },
            "miss_distance": {
                "astronomical": "0.4989567259",
                "lunar": "194.0941663751",
                "kilometers": "74642863.416813833",
                "miles": "46380924.6151555754"
            },
            "orbiting_body": "Earth"
        },
        {
            "close_approach_date": "2015-10-15",
            "close_approach_date_full": "2015-Oct-15 15:56",
            "epoch_date_close_approach": 1444924560000,
            "relative_velocity": {
                "kilometers_per_second": "8.3348681966",
                "kilometers_per_hour": "30005.5255079297",
                "miles_per_hour": "18644.26666908"
            },
            "miss_distance": {
                "astronomical": "0.2084212333",
                "lunar": "81.0758597537",
                "kilometers": "31179372.564453071",
                "miles": "19373963.7289155398"
            },
            "orbiting_body": "Earth"
        }
    ],
    "orbital_data": {
        "orbit_id": "12",
        "orbit_determination_date": "2017-04-06 08:31:32",
        "first_observation_date": "2015-10-09",
        "last_observation_date": "2015-12-01",
        "data_arc_in_days": 53,
        "observations_used": 45,
        "orbit_uncertainty": "6",
        "minimum_orbit_intersection": ".12551",
        "jupiter_tisserand_invariant": "3.480",
        "epoch_osculation": "2459000.5",
        "eccentricity": ".4905829379635438",
        "semi_major_axis": "2.207747492167457",
        "inclination": "8.193636121545712",
        "ascending_node_longitude": "190.202892815949",
        "orbital_period": "1198.181271748951",
        "perihelion_distance": "1.1246642411783",
        "perihelion_argument": "183.7422904151041",
        "aphelion_distance": "3.290830743156615",
        "perihelion_time": "2458512.663964433042",
        "mean_anomaly": "146.5729576525227",
        "mean_motion": ".3004553722280422",
        "equinox": "J2000",
        "orbit_class": {
            "orbit_class_type": "AMO",
            "orbit_class_description": "Near-Earth asteroid orbits similar to that of 1221 Amor",
            "orbit_class_range": "1.017 AU < q (perihelion) < 1.3 AU"
        }
    },
    "is_sentry_object": false
}